******** Week 156 almanac for PRN-18 ********
ID:                         18
Health:                     000
Eccentricity:               0.2173900604E-002
Time of Applicability(s):  61440.0000
Orbital Inclination(rad):   0.9713957308
Rate of Right Ascen(r/s):  -0.7588887536E-008
SQRT(A)  (m 1/2):           5153.569824
Right Ascen at Week(rad):  -0.2778999443E+001
Argument of Perigee(rad):   3.068011385
Mean Anom(rad):            -0.6761166380E+000
Af0(s):                     0.2040863037E-003
Af1(s/s):                  -0.1091393642E-010
week:                        156

******** Week 156 almanac for PRN-19 ********
ID:                         19
Health:                     000
Eccentricity:               0.9091854095E-002
Time of Applicability(s):  61440.0000
Orbital Inclination(rad):   0.9781847942
Rate of Right Ascen(r/s):  -0.7931758961E-008
SQRT(A)  (m 1/2):           5153.644531
Right Ascen at Week(rad):   0.2544222859E+001
Argument of Perigee(rad):   2.029678665
Mean Anom(rad):            -0.2662578316E+001
Af0(s):                     0.1392364502E-003
Af1(s/s):                   0.3637978807E-011
week:                        156

******** Week 156 almanac for PRN-20 ********
ID:                         20
Health:                     000
Eccentricity:               0.4898071289E-002
Time of Applicability(s):  61440.0000
Orbital Inclination(rad):   0.9421122772
Rate of Right Ascen(r/s):  -0.8126052768E-008
SQRT(A)  (m 1/2):           5153.481934
Right Ascen at Week(rad):  -0.1907644426E+001
Argument of Perigee(rad):  -3.129984808
Mean Anom(rad):             0.4993826518E-001
Af0(s):                     0.5159378052E-003
Af1(s/s):                   0.0000000000E+000
week:                        156

******** Week 156 almanac for PRN-21 ********
ID:                         21
Health:                     000
Eccentricity:               0.2449274063E-001
Time of Applicability(s):  61440.0000
Orbital Inclination(rad):   0.9601185751
Rate of Right Ascen(r/s):  -0.7691748964E-008
SQRT(A)  (m 1/2):           5153.519043
Right Ascen at Week(rad):  -0.2878236315E+001
Argument of Perigee(rad):  -0.973778944
Mean Anom(rad):             0.1428533091E+001
Af0(s):                     0.1602172852E-003
Af1(s/s):                   0.0000000000E+000
week:                        156

******** Week 156 almanac for PRN-22 ********
ID:                         22
Health:                     000
Eccentricity:               0.1319169998E-001
Time of Applicability(s):  61440.0000
Orbital Inclination(rad):   0.9614727926
Rate of Right Ascen(r/s):  -0.7931758961E-008
SQRT(A)  (m 1/2):           5153.617676
Right Ascen at Week(rad):  -0.6215206289E+000
Argument of Perigee(rad):  -1.862415962
Mean Anom(rad):             0.1107170108E+001
Af0(s):                     0.2374649048E-003
Af1(s/s):                   0.7275957614E-011
week:                        156

******** Week 156 almanac for PRN-23 ********
ID:                         23
Health:                     000
Eccentricity:               0.2032756805E-002
Time of Applicability(s):  61440.0000
Orbital Inclination(rad):   0.9676626447
Rate of Right Ascen(r/s):  -0.7931758961E-008
SQRT(A)  (m 1/2):           5153.648926
Right Ascen at Week(rad):  -0.1779541301E+001
Argument of Perigee(rad):   2.999164260
Mean Anom(rad):            -0.1694873127E+001
Af0(s):                    -0.1239776611E-004
Af1(s/s):                  -0.3637978807E-011
week:                        156

******** Week 156 almanac for PRN-24 ********
ID:                         24
Health:                     000
Eccentricity:               0.1239728928E-001
Time of Applicability(s):  61440.0000
Orbital Inclination(rad):   0.9348558290
Rate of Right Ascen(r/s):  -0.7943188009E-008
SQRT(A)  (m 1/2):           5153.643555
Right Ascen at Week(rad):   0.2647289066E+000
Argument of Perigee(rad):   0.812629318
Mean Anom(rad):            -0.6474690974E+000
Af0(s):                     0.2613067627E-003
Af1(s/s):                  -0.3637978807E-011
week:                        156

******** Week 156 almanac for PRN-25 ********
ID:                         25
Health:                     000
Eccentricity:               0.1056337357E-001
Time of Applicability(s):  61440.0000
Orbital Inclination(rad):   0.9570026767
Rate of Right Ascen(r/s):  -0.8183198006E-008
SQRT(A)  (m 1/2):           5153.637695
Right Ascen at Week(rad):   0.1383909081E+001
Argument of Perigee(rad):   0.997020850
Mean Anom(rad):            -0.2534041137E+001
Af0(s):                     0.3070831299E-003
Af1(s/s):                   0.3637978807E-011
week:                        156

******** Week 156 almanac for PRN-26 ********
ID:                         26
Health:                     000
Eccentricity:               0.6918430328E-002
Time of Applicability(s):  61440.0000
Orbital Inclination(rad):   0.9378698616
Rate of Right Ascen(r/s):  -0.8354633718E-008
SQRT(A)  (m 1/2):           5153.669434
Right Ascen at Week(rad):   0.1335993153E+001
Argument of Perigee(rad):   0.388485129
Mean Anom(rad):             0.3091029711E+001
Af0(s):                     0.1955032349E-003
Af1(s/s):                   0.3637978807E-011
week:                        156

******** Week 156 almanac for PRN-27 ********
ID:                         27
Health:                     000
Eccentricity:               0.1047182083E-001
Time of Applicability(s):  61440.0000
Orbital Inclination(rad):   0.9728637983
Rate of Right Ascen(r/s):  -0.8023191341E-008
SQRT(A)  (m 1/2):           5153.602539
Right Ascen at Week(rad):   0.2436595532E+001
Argument of Perigee(rad):   0.661370049
Mean Anom(rad):             0.1269348130E+001
Af0(s):                     0.1735687256E-003
Af1(s/s):                   0.1091393642E-010
week:                        156

******** Week 156 almanac for PRN-29 ********
ID:                         29
Health:                     000
Eccentricity:               0.1995563507E-002
Time of Applicability(s):  61440.0000
Orbital Inclination(rad):   0.9814025586
Rate of Right Ascen(r/s):  -0.7920329914E-008
SQRT(A)  (m 1/2):           5153.680664
Right Ascen at Week(rad):   0.2512503987E+001
Argument of Perigee(rad):   2.235394252
Mean Anom(rad):             0.1406812432E+001
Af0(s):                    -0.4987716675E-003
Af1(s/s):                  -0.3637978807E-011
week:                        156

******** Week 156 almanac for PRN-30 ********
ID:                         30
Health:                     000
Eccentricity:               0.5653381348E-002
Time of Applicability(s):  61440.0000
Orbital Inclination(rad):   0.9364976678
Rate of Right Ascen(r/s):  -0.7897471819E-008
SQRT(A)  (m 1/2):           5153.741211
Right Ascen at Week(rad):   0.3606457742E+000
Argument of Perigee(rad):  -2.728141014
Mean Anom(rad):            -0.1573013034E+001
Af0(s):                    -0.5216598511E-003
Af1(s/s):                   0.0000000000E+000
week:                        156

******** Week 156 almanac for PRN-31 ********
ID:                         31
Health:                     000
Eccentricity:               0.1042985916E-001
Time of Applicability(s):  61440.0000
Orbital Inclination(rad):   0.9555525854
Rate of Right Ascen(r/s):  -0.7714607059E-008
SQRT(A)  (m 1/2):           5153.669922
Right Ascen at Week(rad):   0.3665023151E+000
Argument of Perigee(rad):   0.384515729
Mean Anom(rad):            -0.2073939029E+001
Af0(s):                    -0.1716613770E-003
Af1(s/s):                   0.0000000000E+000
week:                        156

******** Week 156 almanac for PRN-32 ********
ID:                         32
Health:                     000
Eccentricity:               0.5847930908E-002
Time of Applicability(s):  61440.0000
Orbital Inclination(rad):   0.9581172096
Rate of Right Ascen(r/s):  -0.8023191341E-008
SQRT(A)  (m 1/2):           5153.524414
Right Ascen at Week(rad):  -0.7117914285E+000
Argument of Perigee(rad):  -2.307454273
Mean Anom(rad):             0.1905403376E+001
Af0(s):                    -0.9822845459E-004
Af1(s/s):                  -0.7275957614E-011
week:                        156

